start=new Date('2022-12-06T00:00:00.000Z').valueOf();
sats=[{"MEAN_MOTION_DOT":"0.00001433","MEAN_ELEMENT_THEORY":"SGP4","NORAD_CAT_ID":"49413","ECCENTRICITY":"0.00034050","TLE_LINE2":"2 49413  53.2160 160.5732 0003405  45.9874 314.1398 15.08840676 59146","RA_OF_ASC_NODE":"160.5732","CLASSIFICATION_TYPE":"U","CENTER_NAME":"EARTH","ARG_OF_PERICENTER":"45.9874","MEAN_ANOMALY":"314.1398","SEMIMAJOR_AXIS":"6917.878","REF_FRAME":"TEME","MEAN_MOTION_DDOT":"0.0000000000000","PERIAPSIS":"537.388","OBJECT_NAME":"STARLINK-3157","PERIOD":"95.438","OBJECT_ID":"2021-104F","MEAN_MOTION":"15.08840676","BSTAR":"0.00010813000000","RCS_SIZE":"LARGE","LAUNCH_DATE":"2021-11-13","OBJECT_TYPE":"PAYLOAD","GP_ID":"219627458","TIME_SYSTEM":"UTC","ELEMENT_SET_NO":"999","SITE":"AFETR","FILE":"3682465","APOAPSIS":"542.099","INCLINATION":"53.2160","EPHEMERIS_TYPE":"0","DECAY_DATE":null,"TLE_LINE1":"1 49413U 21104F   22339.83876055  .00001433  00000-0  10813-3 0  9997","COUNTRY_CODE":"US","REV_AT_EPOCH":"5914","EPOCH":"2022-12-05T20:07:48.911520"},{"SITE":"AFETR","ELEMENT_SET_NO":"999","TIME_SYSTEM":"UTC","FILE":"3682465","LAUNCH_DATE":"2021-11-13","RCS_SIZE":"LARGE","GP_ID":"219628205","OBJECT_TYPE":"PAYLOAD","COUNTRY_CODE":"US","TLE_LINE1":"1 49414U 21104G   22339.77894744  .00002026  00000-0  14535-3 0  9990","REV_AT_EPOCH":"5899","EPOCH":"2022-12-05T18:41:41.058816","APOAPSIS":"541.794","DECAY_DATE":null,"EPHEMERIS_TYPE":"0","INCLINATION":"53.2166","RA_OF_ASC_NODE":"170.8406","TLE_LINE2":"2 49414  53.2166 170.8406 0002989  47.9499 312.1747 15.08846235 58991","CENTER_NAME":"EARTH","CLASSIFICATION_TYPE":"U","NORAD_CAT_ID":"49414","MEAN_MOTION_DOT":"0.00002026","MEAN_ELEMENT_THEORY":"SGP4","ECCENTRICITY":"0.00029890","PERIOD":"95.437","OBJECT_NAME":"STARLINK-3146","PERIAPSIS":"537.659","MEAN_MOTION_DDOT":"0.0000000000000","REF_FRAME":"TEME","BSTAR":"0.00014535000000","MEAN_MOTION":"15.08846235","OBJECT_ID":"2021-104G","MEAN_ANOMALY":"312.1747","ARG_OF_PERICENTER":"47.9499","SEMIMAJOR_AXIS":"6917.861"},{"RA_OF_ASC_NODE":"160.8898","TLE_LINE2":"2 49415  53.2177 160.8898 0003427  47.3582 312.7699 15.08836127 59120","CENTER_NAME":"EARTH","CLASSIFICATION_TYPE":"U","MEAN_ELEMENT_THEORY":"SGP4","MEAN_MOTION_DOT":"-0.00000075","NORAD_CAT_ID":"49415","ECCENTRICITY":"0.00034270","PERIAPSIS":"537.386","OBJECT_NAME":"STARLINK-3159","REF_FRAME":"TEME","MEAN_MOTION_DDOT":"0.0000000000000","PERIOD":"95.438","OBJECT_ID":"2021-104H","BSTAR":"0.00001344900000","MEAN_MOTION":"15.08836127","ARG_OF_PERICENTER":"47.3582","MEAN_ANOMALY":"312.7699","SEMIMAJOR_AXIS":"6917.892","TIME_SYSTEM":"UTC","ELEMENT_SET_NO":"999","SITE":"AFETR","FILE":"3682465","LAUNCH_DATE":"2021-11-13","RCS_SIZE":"LARGE","OBJECT_TYPE":"PAYLOAD","GP_ID":"219628454","TLE_LINE1":"1 49415U 21104H   22339.76882984 -.00000075  00000-0  13449-4 0  9990","REV_AT_EPOCH":"5912","COUNTRY_CODE":"US","EPOCH":"2022-12-05T18:27:06.898176","APOAPSIS":"542.128","DECAY_DATE":null,"INCLINATION":"53.2177","EPHEMERIS_TYPE":"0"},{"OBJECT_TYPE":"PAYLOAD","GP_ID":"219627208","LAUNCH_DATE":"2021-11-13","RCS_SIZE":"LARGE","FILE":"3682465","TIME_SYSTEM":"UTC","SITE":"AFETR","ELEMENT_SET_NO":"999","DECAY_DATE":null,"INCLINATION":"53.2170","EPHEMERIS_TYPE":"0","APOAPSIS":"541.826","EPOCH":"2022-12-05T20:06:28.442880","TLE_LINE1":"1 49416U 21104J   22339.83782920  .00005127  00000-0  34017-3 0  9993","COUNTRY_CODE":"US","REV_AT_EPOCH":"5900","ECCENTRICITY":"0.00029340","MEAN_ELEMENT_THEORY":"SGP4","MEAN_MOTION_DOT":"0.00005127","NORAD_CAT_ID":"49416","CENTER_NAME":"EARTH","CLASSIFICATION_TYPE":"U","RA_OF_ASC_NODE":"170.5708","TLE_LINE2":"2 49416  53.2170 170.5708 0002934  50.3351 309.7900 15.08823204 59002","SEMIMAJOR_AXIS":"6917.932","ARG_OF_PERICENTER":"50.3351","MEAN_ANOMALY":"309.7900","OBJECT_ID":"2021-104J","BSTAR":"0.00034017000000","MEAN_MOTION":"15.08823204","OBJECT_NAME":"STARLINK-3133","PERIAPSIS":"537.767","MEAN_MOTION_DDOT":"0.0000000000000","REF_FRAME":"TEME","PERIOD":"95.439"},{"LAUNCH_DATE":"2021-11-13","RCS_SIZE":"LARGE","GP_ID":"219626958","OBJECT_TYPE":"PAYLOAD","ELEMENT_SET_NO":"999","SITE":"AFETR","TIME_SYSTEM":"UTC","FILE":"3682465","APOAPSIS":"542.237","DECAY_DATE":null,"INCLINATION":"53.2161","EPHEMERIS_TYPE":"0","TLE_LINE1":"1 49417U 21104K   22339.83139248 -.00000351  00000-0 -38717-5 0  9992","COUNTRY_CODE":"US","REV_AT_EPOCH":"5913","EPOCH":"2022-12-05T19:57:12.310272","NORAD_CAT_ID":"49417","MEAN_ELEMENT_THEORY":"SGP4","MEAN_MOTION_DOT":"-0.00000351","ECCENTRICITY":"0.00035810","RA_OF_ASC_NODE":"160.6029","TLE_LINE2":"2 49417  53.2161 160.6029 0003581  43.7894 316.3382 15.08835341 59133","CENTER_NAME":"EARTH","CLASSIFICATION_TYPE":"U","MEAN_ANOMALY":"316.3382","ARG_OF_PERICENTER":"43.7894","SEMIMAJOR_AXIS":"6917.895","PERIOD":"95.438","PERIAPSIS":"537.282","OBJECT_NAME":"STARLINK-3154","REF_FRAME":"TEME","MEAN_MOTION_DDOT":"0.0000000000000","BSTAR":"-0.00000387170000","MEAN_MOTION":"15.08835341","OBJECT_ID":"2021-104K"},{"APOAPSIS":"542.016","DECAY_DATE":null,"EPHEMERIS_TYPE":"0","INCLINATION":"53.2164","TLE_LINE1":"1 49418U 21104L   22339.83415939  .00001115  00000-0  88185-4 0  9997","REV_AT_EPOCH":"5899","COUNTRY_CODE":"US","EPOCH":"2022-12-05T20:01:11.371296","LAUNCH_DATE":"2021-11-13","RCS_SIZE":"LARGE","GP_ID":"219627706","OBJECT_TYPE":"PAYLOAD","SITE":"AFETR","ELEMENT_SET_NO":"999","TIME_SYSTEM":"UTC","FILE":"3682465","MEAN_ANOMALY":"312.0578","ARG_OF_PERICENTER":"48.0691","SEMIMAJOR_AXIS":"6917.897","PERIOD":"95.438","OBJECT_NAME":"STARLINK-3111","PERIAPSIS":"537.509","REF_FRAME":"TEME","MEAN_MOTION_DDOT":"0.0000000000000","BSTAR":"0.00008818500000","MEAN_MOTION":"15.08834417","OBJECT_ID":"2021-104L","NORAD_CAT_ID":"49418","MEAN_MOTION_DOT":"0.00001115","MEAN_ELEMENT_THEORY":"SGP4","ECCENTRICITY":"0.00032580","RA_OF_ASC_NODE":"170.5984","TLE_LINE2":"2 49418  53.2164 170.5984 0003258  48.0691 312.0578 15.08834417 58997","CENTER_NAME":"EARTH","CLASSIFICATION_TYPE":"U"},{"CLASSIFICATION_TYPE":"U","CENTER_NAME":"EARTH","TLE_LINE2":"2 49419  53.2155 170.6523 0003158  46.0539 314.0713 15.08848543 58994","RA_OF_ASC_NODE":"170.6523","ECCENTRICITY":"0.00031580","MEAN_MOTION_DOT":"0.00003565","MEAN_ELEMENT_THEORY":"SGP4","NORAD_CAT_ID":"49419","OBJECT_ID":"2021-104M","MEAN_MOTION":"15.08848543","BSTAR":"0.00024195000000","MEAN_MOTION_DDOT":"0.0000000000000","REF_FRAME":"TEME","OBJECT_NAME":"STARLINK-3120","PERIAPSIS":"537.535","PERIOD":"95.437","SEMIMAJOR_AXIS":"6917.854","ARG_OF_PERICENTER":"46.0539","MEAN_ANOMALY":"314.0713","FILE":"3682465","TIME_SYSTEM":"UTC","SITE":"AFETR","ELEMENT_SET_NO":"999","OBJECT_TYPE":"PAYLOAD","GP_ID":"219627955","RCS_SIZE":"LARGE","LAUNCH_DATE":"2021-11-13","EPOCH":"2022-12-05T19:45:16.569216","REV_AT_EPOCH":"5899","TLE_LINE1":"1 49419U 21104M   22339.82310844  .00003565  00000-0  24195-3 0  9997","COUNTRY_CODE":"US","INCLINATION":"53.2155","EPHEMERIS_TYPE":"0","DECAY_DATE":null,"APOAPSIS":"541.904"},{"OBJECT_TYPE":"PAYLOAD","GP_ID":"219626708","LAUNCH_DATE":"2021-11-13","RCS_SIZE":"LARGE","FILE":"3682465","TIME_SYSTEM":"UTC","ELEMENT_SET_NO":"999","SITE":"AFETR","DECAY_DATE":null,"INCLINATION":"53.2172","EPHEMERIS_TYPE":"0","APOAPSIS":"541.510","EPOCH":"2022-12-05T19:55:53.014080","TLE_LINE1":"1 49420U 21104N   22339.83047470 -.00000450  00000-0 -10150-4 0  9991","COUNTRY_CODE":"US","REV_AT_EPOCH":"5899","ECCENTRICITY":"0.00025240","MEAN_MOTION_DOT":"-0.00000450","MEAN_ELEMENT_THEORY":"SGP4","NORAD_CAT_ID":"49420","CENTER_NAME":"EARTH","CLASSIFICATION_TYPE":"U","RA_OF_ASC_NODE":"170.6129","TLE_LINE2":"2 49420  53.2172 170.6129 0002524  45.7124 314.4075 15.08833955 58995","SEMIMAJOR_AXIS":"6917.899","ARG_OF_PERICENTER":"45.7124","MEAN_ANOMALY":"314.4075","OBJECT_ID":"2021-104N","BSTAR":"-0.00001015000000","MEAN_MOTION":"15.08833955","OBJECT_NAME":"STARLINK-3110","PERIAPSIS":"538.018","REF_FRAME":"TEME","MEAN_MOTION_DDOT":"0.0000000000000","PERIOD":"95.438"},{"OBJECT_TYPE":"PAYLOAD","GP_ID":"219627459","RCS_SIZE":"LARGE","LAUNCH_DATE":"2021-11-13","FILE":"3682465","TIME_SYSTEM":"UTC","ELEMENT_SET_NO":"999","SITE":"AFETR","EPHEMERIS_TYPE":"0","INCLINATION":"53.2169","DECAY_DATE":null,"APOAPSIS":"541.899","EPOCH":"2022-12-05T19:34:41.243232","COUNTRY_CODE":"US","TLE_LINE1":"1 49421U 21104P   22339.81575513  .00000342  00000-0  39619-4 0  9993","REV_AT_EPOCH":"5899","ECCENTRICITY":"0.00031310","MEAN_ELEMENT_THEORY":"SGP4","MEAN_MOTION_DOT":"0.00000342","NORAD_CAT_ID":"49421","CLASSIFICATION_TYPE":"U","CENTER_NAME":"EARTH","TLE_LINE2":"2 49421  53.2169 170.6839 0003131  37.2269 322.8940 15.08843886 58999","RA_OF_ASC_NODE":"170.6839","SEMIMAJOR_AXIS":"6917.869","ARG_OF_PERICENTER":"37.2269","MEAN_ANOMALY":"322.8940","OBJECT_ID":"2021-104P","MEAN_MOTION":"15.08843886","BSTAR":"0.00003961900000","REF_FRAME":"TEME","MEAN_MOTION_DDOT":"0.0000000000000","PERIAPSIS":"537.568","OBJECT_NAME":"STARLINK-3112","PERIOD":"95.437"},{"SEMIMAJOR_AXIS":"6917.874","ARG_OF_PERICENTER":"44.7572","MEAN_ANOMALY":"315.3647","OBJECT_ID":"2021-104Q","BSTAR":"0.00005639700000","MEAN_MOTION":"15.08841941","PERIAPSIS":"537.787","OBJECT_NAME":"STARLINK-3161","REF_FRAME":"TEME","MEAN_MOTION_DDOT":"0.0000000000000","PERIOD":"95.437","ECCENTRICITY":"0.00028230","MEAN_ELEMENT_THEORY":"SGP4","MEAN_MOTION_DOT":"0.00000609","NORAD_CAT_ID":"49422","CENTER_NAME":"EARTH","CLASSIFICATION_TYPE":"U","RA_OF_ASC_NODE":"170.6379","TLE_LINE2":"2 49422  53.2156 170.6379 0002823  44.7572 315.3647 15.08841941 58993","DECAY_DATE":null,"INCLINATION":"53.2156","EPHEMERIS_TYPE":"0","APOAPSIS":"541.692","EPOCH":"2022-12-05T19:50:34.801152","COUNTRY_CODE":"US","TLE_LINE1":"1 49422U 21104Q   22339.82679168  .00000609  00000-0  56397-4 0  9994","REV_AT_EPOCH":"5899","OBJECT_TYPE":"PAYLOAD","GP_ID":"219628206","LAUNCH_DATE":"2021-11-13","RCS_SIZE":"LARGE","FILE":"3682465","TIME_SYSTEM":"UTC","ELEMENT_SET_NO":"999","SITE":"AFETR"}];
